{"type": "FeatureCollection", "name": "fels_geroell", "quelle": "© OpenStreetMap-Mitwirkende, ODbL 1.0", "abgerufen": "2026-10-01", "features": [{"type": "Feature", "geometry": {"type": "Polygon", "coordinates": [[[11.4799348, 46.6072942], [11.4797094, 46.607549], [11.4797873, 46.6078073], [11.4792625, 46.607723], [11.4790039, 46.6077319], [11.478929, 46.6076462], [11.4789562, 46.6075032], [11.4791271, 46.6074053], [11.4790327, 46.6071364], [11.4788758, 46.6070962], [11.4789293, 46.6070264], [11.4793482, 46.6070223], [11.4798023, 46.6071903], [11.4799348, 46.6072942]]]}, "properties": {"osm_id": "way/226132173", "natural": "scree"}}, {"type": "Feature", "geometry": {"type": "Polygon", "coordinates": [[[11.4992591, 46.6088089], [11.5000647, 46.6085673], [11.5004077, 46.6085051], [11.5006972, 46.6084288], [11.5010057, 46.6082317], [11.501249, 46.6081976], [11.5010359, 46.6078661], [11.5006977, 46.6079575], [11.500103, 46.6080809], [11.4997687, 46.6082143], [11.4994532, 46.6084866], [11.499343, 46.6086059], [11.4992591, 46.6088089]]]}, "properties": {"osm_id": "way/226254617", "natural": "scree"}}, {"type": "Feature", "geometry": {"type": "Polygon", "coordinates": [[[11.4740241, 46.6118256], [11.4744794, 46.6121383], [11.4743398, 46.6123802], [11.4746069, 46.6125596], [11.4742427, 46.6129933], [11.4736113, 46.6128598], [11.4733866, 46.6129516], [11.473077, 46.61301], [11.4727249, 46.6128598], [11.4726399, 46.6125971], [11.4726277, 46.6122968], [11.4729981, 46.61208], [11.4731316, 46.6122801], [11.4735566, 46.6120341], [11.4737448, 46.6118506], [11.4740241, 46.6118256]]]}, "properties": {"osm_id": "way/226256901", "natural": "scree"}}, {"type": "Feature", "geometry": {"type": "Polygon", "coordinates": [[[11.4706571, 46.6149638], [11.4709331, 46.6151073], [11.470729, 46.6155352], [11.470128, 46.6156119], [11.4697674, 46.6158301], [11.4690719, 46.6161368], [11.4682391, 46.6159245], [11.4679121, 46.6152294], [11.4683765, 46.6148924], [11.4691795, 46.6147272], [11.4696199, 46.6147519], [11.4689928, 46.6149319], [11.4681382, 46.6155495], [11.4685339, 46.6155865], [11.4692599, 46.6153114], [11.4696406, 46.6152099], [11.4699391, 46.6147627], [11.4705469, 46.6146489], [11.4708754, 46.6144586], [11.4707097, 46.6141741], [11.4710323, 46.6140107], [11.471064, 46.6138563], [11.4708612, 46.6136584], [11.4709623, 46.613557], [11.4710179, 46.6137124], [11.4711359, 46.6136586], [11.4711585, 46.6133603], [11.4710796, 46.6131517], [11.4711525, 46.6130225], [11.4713225, 46.6128848], [11.4716382, 46.6130141], [11.4721542, 46.6128306], [11.4724517, 46.6128515], [11.4725349, 46.6131827], [11.4722532, 46.6132136], [11.4719835, 46.6132092], [11.4718567, 46.6133352], [11.4714572, 46.6135567], [11.4713164, 46.6139816], [11.4710493, 46.6143945], [11.4711128, 46.6146229], [11.4708677, 46.6149194], [11.4706571, 46.6149638]]]}, "properties": {"osm_id": "way/226256916", "natural": "scree"}}, {"type": "Feature", "geometry": {"type": "Polygon", "coordinates": [[[11.4760488, 46.6096861], [11.4756967, 46.609782], [11.475557, 46.6096986], [11.4756785, 46.6095526], [11.4759881, 46.609611], [11.4760488, 46.6096861]]]}, "properties": {"osm_id": "way/226256923", "natural": "scree"}}, {"type": "Feature", "geometry": {"type": "Polygon", "coordinates": [[[11.5005537, 46.6114912], [11.5008677, 46.6117516], [11.5011302, 46.6117341], [11.5011379, 46.6114859], [11.5009842, 46.6113909], [11.5007152, 46.6113751], [11.5005537, 46.6114912]]]}, "properties": {"osm_id": "way/226256926", "natural": "scree"}}, {"type": "Feature", "geometry": {"type": "Polygon", "coordinates": [[[11.4718142, 46.6144779], [11.4718689, 46.6147865], [11.4724335, 46.6147073], [11.4724881, 46.6145446], [11.4723849, 46.6144821], [11.4722574, 46.6144445], [11.4718142, 46.6144779]]]}, "properties": {"osm_id": "way/226256927", "natural": "scree"}}, {"type": "Feature", "geometry": {"type": "Polygon", "coordinates": [[[11.4743034, 46.6106286], [11.4739391, 46.6102324], [11.4731802, 46.6104743], [11.4731984, 46.6107496], [11.4734959, 46.6108705], [11.4736538, 46.6106828], [11.4739755, 46.6107454], [11.4743034, 46.6106286]]]}, "properties": {"osm_id": "way/226256928", "natural": "scree"}}, {"type": "Feature", "geometry": {"type": "Polygon", "coordinates": [[[11.499032, 46.6089305], [11.4991473, 46.6094215], [11.4991088, 46.6097436], [11.4987322, 46.6096539], [11.4984478, 46.6092315], [11.4984709, 46.6090203], [11.4988782, 46.6088619], [11.499032, 46.6089305]]]}, "properties": {"osm_id": "way/226256930", "natural": "scree"}}, {"type": "Feature", "geometry": {"type": "Polygon", "coordinates": [[[11.4737509, 46.6111499], [11.4733077, 46.6113209], [11.4730649, 46.6116129], [11.473162, 46.6117213], [11.4737023, 46.6115211], [11.4739512, 46.6115753], [11.4739998, 46.6114002], [11.4738237, 46.6111583], [11.4737509, 46.6111499]]]}, "properties": {"osm_id": "way/226256935", "natural": "scree"}}, {"type": "Feature", "geometry": {"type": "Polygon", "coordinates": [[[11.4947036, 46.5923941], [11.4942793, 46.5921851], [11.4943388, 46.5919443], [11.4940433, 46.5918164], [11.4939633, 46.5915831], [11.4941135, 46.5915683], [11.4943496, 46.5917084], [11.4945105, 46.5916715], [11.494451, 46.5918385], [11.4945963, 46.5919001], [11.4947143, 46.5922466], [11.4947036, 46.5923941]]]}, "properties": {"osm_id": "way/449940985", "natural": "scree"}}, {"type": "Feature", "geometry": {"type": "Polygon", "coordinates": [[[11.489543, 46.5913693], [11.4897362, 46.5912882], [11.4894679, 46.5909564], [11.4891246, 46.5909343], [11.4890651, 46.5911086], [11.489543, 46.5913693]]]}, "properties": {"osm_id": "way/449940986", "natural": "scree"}}, {"type": "Feature", "geometry": {"type": "Polygon", "coordinates": [[[11.4898327, 46.5917232], [11.4899722, 46.5918116], [11.490219, 46.5917821], [11.490455, 46.5916347], [11.490691, 46.5916273], [11.4902989, 46.5918385], [11.4902345, 46.591986], [11.4904443, 46.5919665], [11.4905194, 46.5918632], [11.4907769, 46.5917895], [11.4907388, 46.5917279], [11.4909056, 46.5915978], [11.4909963, 46.5916763], [11.4915708, 46.5911849], [11.4916244, 46.5909711], [11.491442, 46.5908532], [11.4911202, 46.59089], [11.4908198, 46.5907868], [11.4905301, 46.5911776], [11.4903263, 46.5914356], [11.4903584, 46.5915462], [11.4900414, 46.5916395], [11.4899722, 46.5916052], [11.4898327, 46.5917232]]]}, "properties": {"osm_id": "way/449940987", "natural": "scree"}}, {"type": "Feature", "geometry": {"type": "Polygon", "coordinates": [[[11.4882127, 46.590455], [11.4882127, 46.5901306], [11.4882663, 46.5899315], [11.4884594, 46.5900421], [11.4884272, 46.590396], [11.4882127, 46.590455]]]}, "properties": {"osm_id": "way/449940988", "natural": "scree"}}, {"type": "Feature", "geometry": {"type": "Polygon", "coordinates": [[[11.4884377, 46.5908607], [11.4880244, 46.5906441], [11.4880997, 46.59054], [11.4881907, 46.5904967], [11.4883248, 46.5906884], [11.4884267, 46.5907547], [11.4884377, 46.5908607]]]}, "properties": {"osm_id": "way/449940989", "natural": "scree"}}, {"type": "Feature", "geometry": {"type": "Polygon", "coordinates": [[[11.4993111, 46.602752], [11.4991824, 46.6026046], [11.4990748, 46.602549], [11.4992679, 46.6025047], [11.4993591, 46.6025969], [11.4993699, 46.6027222], [11.4993111, 46.602752]]]}, "properties": {"osm_id": "way/458535275", "natural": "scree"}}, {"type": "Feature", "geometry": {"type": "Polygon", "coordinates": [[[11.5000782, 46.6045653], [11.5003623, 46.6046387], [11.5006359, 46.6048119], [11.5004913, 46.6045211], [11.5003733, 46.6044879], [11.5003623, 46.6044102], [11.5003679, 46.6042779], [11.5002714, 46.6042558], [11.5002818, 46.604436], [11.5001263, 46.6044544], [11.5000619, 46.6044802], [11.499971, 46.6045469], [11.5000782, 46.6045653]]]}, "properties": {"osm_id": "way/458541537", "natural": "scree"}}, {"type": "Feature", "geometry": {"type": "Polygon", "coordinates": [[[11.4988176, 46.6069166], [11.4988656, 46.6067799], [11.4988122, 46.606655], [11.4988498, 46.6064965], [11.498941, 46.6064339], [11.4990215, 46.6065186], [11.499118, 46.606268], [11.4990856, 46.6061608], [11.4991073, 46.6060469], [11.4992304, 46.6059986], [11.4991714, 46.6061939], [11.4992468, 46.6062643], [11.4994021, 46.6061755], [11.4993755, 46.6061206], [11.4992411, 46.6061792], [11.499354, 46.60601], [11.4995364, 46.6058479], [11.4998583, 46.6057852], [11.500019, 46.6059323], [11.4998368, 46.6059732], [11.4997081, 46.6061759], [11.4997081, 46.6064081], [11.4994289, 46.6062603], [11.4991556, 46.6064302], [11.4990054, 46.6068245], [11.4989732, 46.6066918], [11.4989246, 46.6068536], [11.4988176, 46.6069166]]]}, "properties": {"osm_id": "way/458541542", "natural": "scree"}}, {"type": "Feature", "geometry": {"type": "Polygon", "coordinates": [[[11.4983512, 46.6085085], [11.4985706, 46.6085194], [11.4986298, 46.6084053], [11.4987318, 46.6083906], [11.4987422, 46.6084678], [11.4989303, 46.6083758], [11.4991717, 46.6080147], [11.4990912, 46.607624], [11.4990215, 46.6073034], [11.4989785, 46.6072113], [11.4987693, 46.6071818], [11.4986835, 46.6074103], [11.4988978, 46.607447], [11.4989675, 46.6075244], [11.4988444, 46.6075761], [11.4987801, 46.6076793], [11.4987854, 46.6077346], [11.4987157, 46.6078894], [11.4986296, 46.6079813], [11.498651, 46.608055], [11.4984853, 46.6082137], [11.4981951, 46.6083757], [11.4981146, 46.6085046], [11.4982492, 46.608409], [11.498356, 46.6083941], [11.4983512, 46.6085085]]]}, "properties": {"osm_id": "way/458541545", "natural": "scree"}}, {"type": "Feature", "geometry": {"type": "Polygon", "coordinates": [[[11.4780416, 46.6074693], [11.4782149, 46.6075019], [11.4782846, 46.6074835], [11.4783275, 46.6075425], [11.4783758, 46.6075572], [11.4781328, 46.6077199], [11.4782723, 46.6077568], [11.4784815, 46.6076278], [11.478519, 46.6074841], [11.4784225, 46.6075172], [11.4782846, 46.6073766], [11.4783903, 46.6073919], [11.4784171, 46.6073035], [11.478342, 46.607215], [11.478188, 46.6072366], [11.4780539, 46.607373], [11.4780416, 46.6074693]]]}, "properties": {"osm_id": "way/461422034", "natural": "scree"}}, {"type": "Feature", "geometry": {"type": "Polygon", "coordinates": [[[11.4767863, 46.6078452], [11.4771457, 46.6078231], [11.4771726, 46.6077199], [11.4774193, 46.6076978], [11.4777627, 46.6076315], [11.4779182, 46.6074804], [11.4779987, 46.6073256], [11.4777948, 46.6073956], [11.4777213, 46.6073361], [11.477414, 46.6073883], [11.4773727, 46.6074798], [11.4777305, 46.6074583], [11.4775105, 46.6075873], [11.4770615, 46.6075646], [11.4770331, 46.6076499], [11.4771779, 46.6076683], [11.4769971, 46.6077341], [11.4769167, 46.6077894], [11.4767971, 46.6077715], [11.4767863, 46.6078452]]]}, "properties": {"osm_id": "way/461422040", "natural": "scree"}}, {"type": "Feature", "geometry": {"type": "Polygon", "coordinates": [[[11.4610087, 46.6187509], [11.4614172, 46.6185353], [11.4612651, 46.6184786], [11.4611409, 46.6185238], [11.461378, 46.6182413], [11.4612871, 46.6180729], [11.4611689, 46.6181462], [11.4610155, 46.6180553], [11.4611433, 46.6177045], [11.4608429, 46.617953], [11.4610468, 46.618222], [11.460922, 46.6183047], [11.4607785, 46.6182127], [11.4604422, 46.6181951], [11.4603767, 46.6182856], [11.4603779, 46.6183796], [11.4605682, 46.6184675], [11.460524, 46.6186037], [11.4603224, 46.6185316], [11.4601214, 46.618291], [11.4597971, 46.6183835], [11.4596319, 46.6181488], [11.4593578, 46.6181534], [11.4593822, 46.6182336], [11.4591547, 46.6183594], [11.4589305, 46.6183137], [11.4589165, 46.6184909], [11.4592456, 46.6184874], [11.4594868, 46.6183889], [11.4596796, 46.6184825], [11.4596753, 46.6185464], [11.4594377, 46.6185241], [11.4592035, 46.6186562], [11.4593175, 46.6187684], [11.4593594, 46.6189003], [11.4598309, 46.619009], [11.4600181, 46.6188658], [11.4598972, 46.6186324], [11.4599862, 46.6185759], [11.4601225, 46.6186164], [11.4603191, 46.6185786], [11.4605264, 46.6187483], [11.4607567, 46.6187162], [11.4610054, 46.6186545], [11.4610087, 46.6187509]]]}, "properties": {"osm_id": "way/462830480", "natural": "scree"}}, {"type": "Feature", "geometry": {"type": "Polygon", "coordinates": [[[11.4608188, 46.6022981], [11.4603856, 46.6024144], [11.4592861, 46.6024421], [11.4592036, 46.6022939], [11.4589187, 46.6021846], [11.4591948, 46.6018637], [11.4596724, 46.6018215], [11.4598486, 46.6017493], [11.4598929, 46.601514], [11.4602309, 46.601406], [11.4605345, 46.601295], [11.4605932, 46.6014135], [11.460964, 46.6012212], [11.4610629, 46.6010494], [11.461346, 46.601023], [11.4614711, 46.6014937], [11.461352, 46.6016367], [11.4612281, 46.6016384], [11.4610205, 46.6019738], [11.4608861, 46.6020056], [11.4608716, 46.6021654], [11.4608188, 46.6022981]]]}, "properties": {"osm_id": "way/463097684", "natural": "scree"}}, {"type": "Feature", "geometry": {"type": "Polygon", "coordinates": [[[11.4500371, 46.5972605], [11.4503483, 46.5973416], [11.4505307, 46.5971573], [11.4504019, 46.5970025], [11.4501337, 46.5969287], [11.4501122, 46.5966781], [11.4499084, 46.5963832], [11.4499084, 46.5961842], [11.4495114, 46.5959999], [11.4493398, 46.5961989], [11.449211, 46.5961989], [11.4492861, 46.5963242], [11.4495972, 46.5963537], [11.4496402, 46.5965528], [11.4495436, 46.596597], [11.4495007, 46.5967666], [11.4496616, 46.5967739], [11.4497689, 46.5970762], [11.4500157, 46.597172], [11.4500371, 46.5972605]]]}, "properties": {"osm_id": "way/463097686", "natural": "scree"}}, {"type": "Feature", "geometry": {"type": "Polygon", "coordinates": [[[11.5017973, 46.6102072], [11.5013658, 46.6101373], [11.5013961, 46.6100605], [11.5015696, 46.6099715], [11.5019475, 46.610064], [11.501749, 46.6101375], [11.5017973, 46.6102072]]]}, "properties": {"osm_id": "way/463106699", "natural": "scree"}}, {"type": "Feature", "geometry": {"type": "Polygon", "coordinates": [[[11.5007488, 46.6125842], [11.5011673, 46.6124663], [11.5011708, 46.6123894], [11.5009312, 46.6123373], [11.5006611, 46.612441], [11.5006577, 46.6124921], [11.5007488, 46.6125842]]]}, "properties": {"osm_id": "way/463106702", "natural": "scree"}}, {"type": "Feature", "geometry": {"type": "Polygon", "coordinates": [[[11.5006577, 46.609415], [11.5009455, 46.6094156], [11.5010474, 46.6093382], [11.5008561, 46.6092713], [11.5006577, 46.6093155], [11.5006147, 46.6093856], [11.5006577, 46.609415]]]}, "properties": {"osm_id": "way/463106706", "natural": "scree"}}, {"type": "Feature", "geometry": {"type": "Polygon", "coordinates": [[[11.5012853, 46.6130448], [11.5010206, 46.6129385], [11.5012512, 46.6126732], [11.5013926, 46.6126468], [11.5013014, 46.6128716], [11.5013389, 46.6129932], [11.5012853, 46.6130448]]]}, "properties": {"osm_id": "way/463106708", "natural": "scree"}}, {"type": "Feature", "geometry": {"type": "Polygon", "coordinates": [[[11.4704723, 46.5923648], [11.4703972, 46.5923316], [11.4704991, 46.5921104], [11.4707244, 46.5920588], [11.4706869, 46.5920293], [11.4704348, 46.5920293], [11.470424, 46.5920035], [11.4706547, 46.5918524], [11.4707191, 46.5916385], [11.4708736, 46.5915844], [11.4708961, 46.5914137], [11.4708425, 46.5913805], [11.4708639, 46.591222], [11.4711804, 46.5910966], [11.4712974, 46.5911125], [11.4711429, 46.5912515], [11.4711751, 46.5913473], [11.470997, 46.5916065], [11.4710195, 46.5916865], [11.4709337, 46.5917713], [11.4709605, 46.5918524], [11.4708961, 46.5919261], [11.4709176, 46.5920146], [11.4707781, 46.5920477], [11.4707405, 46.5921583], [11.4705635, 46.5922726], [11.4705742, 46.5923721], [11.4704723, 46.5923648]]]}, "properties": {"osm_id": "way/463283111", "natural": "scree"}}, {"type": "Feature", "geometry": {"type": "Polygon", "coordinates": [[[11.4626564, 46.5933969], [11.462371, 46.5933059], [11.4619697, 46.5929103], [11.4615298, 46.5927408], [11.4613045, 46.5925122], [11.460944, 46.5924064], [11.4607144, 46.5925343], [11.4603818, 46.5924164], [11.4601136, 46.5921362], [11.4602209, 46.5919519], [11.461208, 46.5921583], [11.4617015, 46.5924311], [11.4623881, 46.5928219], [11.4626499, 46.5928783], [11.4626928, 46.5930626], [11.462843, 46.5930847], [11.4629031, 46.5929693], [11.4630426, 46.5930135], [11.462989, 46.593419], [11.462828, 46.5934485], [11.4627851, 46.5933306], [11.4626564, 46.5933969]]]}, "properties": {"osm_id": "way/463283112", "natural": "scree"}}, {"type": "Feature", "geometry": {"type": "Polygon", "coordinates": [[[11.50179, 46.6015455], [11.5019157, 46.6014434], [11.5019908, 46.6013715], [11.5020042, 46.6012555], [11.5019935, 46.6011855], [11.5018647, 46.601121], [11.501744, 46.6012832], [11.5017104, 46.6013494], [11.5016019, 46.6014121], [11.5015328, 46.601437], [11.5013937, 46.6014999], [11.5013763, 46.6015626], [11.5015292, 46.6015997], [11.50179, 46.6015455]]]}, "properties": {"osm_id": "way/532742815", "natural": "bare_rock"}}, {"type": "Feature", "geometry": {"type": "Polygon", "coordinates": [[[11.4600024, 46.6156516], [11.4596914, 46.6160121], [11.4596756, 46.616392], [11.4599442, 46.6164788], [11.4604578, 46.6163648], [11.4609477, 46.6159469], [11.4613507, 46.6157515], [11.4619434, 46.615415], [11.462378, 46.6152468], [11.4621537, 46.6143222], [11.4624085, 46.6138292], [11.4622535, 46.6137294], [11.4619015, 46.6138253], [11.4619299, 46.6140004], [11.4617567, 46.6141501], [11.4615891, 46.6143189], [11.4615779, 46.6144686], [11.4616785, 46.6146145], [11.4616449, 46.6148256], [11.461427, 46.614933], [11.4611644, 46.6151326], [11.4608627, 46.6154089], [11.4605685, 46.6155975], [11.4602146, 46.6157658], [11.4600024, 46.6156516]]]}, "properties": {"osm_id": "relation/3951493", "natural": "scree", "type": "multipolygon"}}]}