{"type": "FeatureCollection", "name": "seilbahnen", "quelle": "© OpenStreetMap-Mitwirkende, ODbL 1.0", "abgerufen": "2026-10-01", "features": [{"type": "Feature", "geometry": {"type": "Point", "coordinates": [11.4525162, 46.5957762]}, "properties": {"osm_id": "node/314953492", "aerialway": "station", "aerialway:access": "both", "aerialway:summer:access": "both", "ele": "2067", "name": "Schwarzseespitze - Cima Lago Nero", "name:de": "Schwarzseespitze", "name:it": "Cima Lago Nero", "public_transport": "station"}}, {"type": "Feature", "geometry": {"type": "Point", "coordinates": [11.4561052, 46.6022472]}, "properties": {"osm_id": "node/1697841573", "aerialway": "station", "aerialway:access": "entry", "aerialway:summer:access": "entry", "air_conditioning": "no", "ele": "2014", "public_transport": "station", "wheelchair": "no"}}, {"type": "Feature", "geometry": {"type": "Point", "coordinates": [11.4610804, 46.6150171]}, "properties": {"osm_id": "node/1697841594", "aerialway": "station", "aerialway:access": "exit", "aerialway:summer:access": "exit", "ele": "2260"}}, {"type": "Feature", "geometry": {"type": "Point", "coordinates": [11.4577824, 46.6025611]}, "properties": {"osm_id": "node/2524429982", "aerialway": "station", "aerialway:access": "exit", "ele": "2025"}}, {"type": "Feature", "geometry": {"type": "Point", "coordinates": [11.4668442, 46.6016174]}, "properties": {"osm_id": "node/2524429983", "aerialway": "station", "ele": "1841"}}, {"type": "Feature", "geometry": {"type": "Point", "coordinates": [11.4517305, 46.593489]}, "properties": {"osm_id": "node/4228747535", "aerialway": "pylon"}}, {"type": "Feature", "geometry": {"type": "Point", "coordinates": [11.4523879, 46.5954026]}, "properties": {"osm_id": "node/4228747536", "aerialway": "pylon"}}, {"type": "Feature", "geometry": {"type": "Point", "coordinates": [11.4496975, 46.5876393]}, "properties": {"osm_id": "node/4228747537", "aerialway": "pylon", "ref": "11"}}, {"type": "Feature", "geometry": {"type": "Point", "coordinates": [11.4500482, 46.5886337]}, "properties": {"osm_id": "node/4228747539", "aerialway": "pylon", "ref": "12"}}, {"type": "Feature", "geometry": {"type": "Point", "coordinates": [11.4504681, 46.5898135]}, "properties": {"osm_id": "node/4228747540", "aerialway": "pylon", "ref": "13"}}, {"type": "Feature", "geometry": {"type": "Point", "coordinates": [11.4509375, 46.5911802]}, "properties": {"osm_id": "node/4228747542", "aerialway": "pylon"}}, {"type": "Feature", "geometry": {"type": "Point", "coordinates": [11.4519399, 46.5940986]}, "properties": {"osm_id": "node/4228747545", "aerialway": "pylon"}}, {"type": "Feature", "geometry": {"type": "Point", "coordinates": [11.4513231, 46.5923029]}, "properties": {"osm_id": "node/4228747551", "aerialway": "pylon"}}, {"type": "Feature", "geometry": {"type": "Point", "coordinates": [11.4505767, 46.5901296]}, "properties": {"osm_id": "node/4707408835", "aerialway": "station", "aerialway:access": "exit", "aerialway:summer:access": "no", "ele": "1840", "name": "Mittelstation - Stazione intermedia", "name:de": "Mittelstation", "name:it": "Stazione intermedia", "public_transport": "station"}}, {"type": "Feature", "geometry": {"type": "Point", "coordinates": [11.4563365, 46.6028268]}, "properties": {"osm_id": "node/4707409200", "aerialway": "pylon"}}, {"type": "Feature", "geometry": {"type": "Point", "coordinates": [11.4565516, 46.6033795]}, "properties": {"osm_id": "node/4707409201", "aerialway": "pylon"}}, {"type": "Feature", "geometry": {"type": "Point", "coordinates": [11.4568867, 46.6042408]}, "properties": {"osm_id": "node/4707409203", "aerialway": "pylon"}}, {"type": "Feature", "geometry": {"type": "Point", "coordinates": [11.4577158, 46.6063714]}, "properties": {"osm_id": "node/4707409204", "aerialway": "pylon"}}, {"type": "Feature", "geometry": {"type": "Point", "coordinates": [11.458114, 46.6073948]}, "properties": {"osm_id": "node/4707409205", "aerialway": "pylon"}}, {"type": "Feature", "geometry": {"type": "Point", "coordinates": [11.4583755, 46.6080667]}, "properties": {"osm_id": "node/4707409206", "aerialway": "pylon"}}, {"type": "Feature", "geometry": {"type": "Point", "coordinates": [11.4586165, 46.6086859]}, "properties": {"osm_id": "node/4707409207", "aerialway": "pylon"}}, {"type": "Feature", "geometry": {"type": "Point", "coordinates": [11.4587311, 46.6089804]}, "properties": {"osm_id": "node/4707409208", "aerialway": "pylon"}}, {"type": "Feature", "geometry": {"type": "Point", "coordinates": [11.459256, 46.6103293]}, "properties": {"osm_id": "node/4707409209", "aerialway": "pylon"}}, {"type": "Feature", "geometry": {"type": "Point", "coordinates": [11.4596265, 46.6112813]}, "properties": {"osm_id": "node/4707409210", "aerialway": "pylon"}}, {"type": "Feature", "geometry": {"type": "Point", "coordinates": [11.4598905, 46.6119597]}, "properties": {"osm_id": "node/4707409211", "aerialway": "pylon"}}, {"type": "Feature", "geometry": {"type": "Point", "coordinates": [11.4601467, 46.612618]}, "properties": {"osm_id": "node/4707409212", "aerialway": "pylon"}}, {"type": "Feature", "geometry": {"type": "Point", "coordinates": [11.4603679, 46.6131863]}, "properties": {"osm_id": "node/4707409213", "aerialway": "pylon"}}, {"type": "Feature", "geometry": {"type": "Point", "coordinates": [11.4606305, 46.6138611]}, "properties": {"osm_id": "node/4707409214", "aerialway": "pylon"}}, {"type": "Feature", "geometry": {"type": "Point", "coordinates": [11.4609027, 46.6145605]}, "properties": {"osm_id": "node/4707409215", "aerialway": "pylon"}}, {"type": "Feature", "geometry": {"type": "Point", "coordinates": [11.461888, 46.6021335]}, "properties": {"osm_id": "node/4719268242", "aerialway": "pylon"}}, {"type": "Feature", "geometry": {"type": "Point", "coordinates": [11.4585273, 46.6024835]}, "properties": {"osm_id": "node/4719268243", "aerialway": "pylon"}}, {"type": "Feature", "geometry": {"type": "Point", "coordinates": [11.4570841, 46.6047481]}, "properties": {"osm_id": "node/4719268244", "aerialway": "pylon"}}, {"type": "Feature", "geometry": {"type": "Point", "coordinates": [11.4573308, 46.605382]}, "properties": {"osm_id": "node/4719268245", "aerialway": "pylon"}}, {"type": "Feature", "geometry": {"type": "LineString", "coordinates": [[11.4459102, 46.5766022], [11.4459761, 46.5768178], [11.4459917, 46.5768689], [11.4461215, 46.5772494], [11.4465864, 46.5785197], [11.4469943, 46.5798006], [11.4472795, 46.5806248], [11.447551, 46.581399], [11.4480684, 46.5828901], [11.4486419, 46.5845547], [11.4492519, 46.5863389], [11.4496975, 46.5876393], [11.4500482, 46.5886337], [11.4504681, 46.5898135], [11.4505767, 46.5901296], [11.4509375, 46.5911802], [11.4513231, 46.5923029], [11.4517305, 46.593489], [11.4519399, 46.5940986], [11.4523879, 46.5954026], [11.4525162, 46.5957762]]}, "properties": {"osm_id": "way/32427046", "aerialway": "gondola", "aerialway:bubble": "yes", "aerialway:capacity": "1800", "aerialway:duration": "7", "aerialway:heating": "no", "aerialway:occupancy": "8", "name": "Rittnerhornbahn - Funivia del Corno del Renon", "name:de": "Rittnerhornbahn", "name:it": "Funivia del Corno del Renon", "oneway": "no"}}, {"type": "Feature", "geometry": {"type": "LineString", "coordinates": [[11.4561052, 46.6022472], [11.4563365, 46.6028268], [11.4565516, 46.6033795], [11.4568867, 46.6042408], [11.4570841, 46.6047481], [11.4573308, 46.605382], [11.4577158, 46.6063714], [11.458114, 46.6073948], [11.4583755, 46.6080667], [11.4586165, 46.6086859], [11.4587311, 46.6089804], [11.459256, 46.6103293], [11.4596265, 46.6112813], [11.4598905, 46.6119597], [11.4601467, 46.612618], [11.4603679, 46.6131863], [11.4606305, 46.6138611], [11.4609027, 46.6145605], [11.4610804, 46.6150171]]}, "properties": {"osm_id": "way/157553896", "aerialway": "platter", "aerialway:capacity": "900", "name": "Rittnerhorn - Corno del Renon"}}, {"type": "Feature", "geometry": {"type": "LineString", "coordinates": [[11.4668442, 46.6016174], [11.461888, 46.6021335], [11.4585273, 46.6024835], [11.4577824, 46.6025611]]}, "properties": {"osm_id": "way/245208330", "aerialway": "platter", "aerialway:capacity": "700", "name": "Pennleger"}}, {"type": "Feature", "geometry": {"type": "LineString", "coordinates": [[11.450527, 46.5908264], [11.4502748, 46.5911526]]}, "properties": {"osm_id": "way/478158071", "aerialway": "magic_carpet"}}]}