{"type": "FeatureCollection", "name": "seilbahnen", "quelle": "© OpenStreetMap-Mitwirkende, ODbL 1.0", "abgerufen": "2026-10-04", "features": [{"type": "Feature", "geometry": {"type": "Point", "coordinates": [11.2807635, 46.686191]}, "properties": {"osm_id": "node/276682614", "aerialway": "station", "name": "Mittager"}}, {"type": "Feature", "geometry": {"type": "Point", "coordinates": [11.2949302, 46.6826865]}, "properties": {"osm_id": "node/276682619", "aerialway": "station", "ele": "2270", "name": "Mittager"}}, {"type": "Feature", "geometry": {"type": "Point", "coordinates": [11.2722128, 46.6929204]}, "properties": {"osm_id": "node/398229983", "aerialway": "station", "ele": "2200", "name": "St. Oswald - S. Osvaldo"}}, {"type": "Feature", "geometry": {"type": "Point", "coordinates": [11.2760243, 46.6809378]}, "properties": {"osm_id": "node/398229985", "aerialway": "station", "name": "St. Oswald - S. Osvaldo", "name:de": "St. Oswald", "name:it": "S. Osvaldo", "public_transport": "station"}}, {"type": "Feature", "geometry": {"type": "Point", "coordinates": [11.2807726, 46.6864973]}, "properties": {"osm_id": "node/768422154", "aerialway": "station", "name": "Kesselberg"}}, {"type": "Feature", "geometry": {"type": "Point", "coordinates": [11.302934, 46.691057]}, "properties": {"osm_id": "node/1672091298", "aerialway": "station", "ele": "2300", "name": "Kesselberg - Costa Valcanova", "name:de": "Kesselberg", "name:it": "Costa Valcanova"}}, {"type": "Feature", "geometry": {"type": "Point", "coordinates": [11.2871143, 46.6878022]}, "properties": {"osm_id": "node/2794855322", "aerialway": "pylon"}}, {"type": "Feature", "geometry": {"type": "Point", "coordinates": [11.2979134, 46.6900243]}, "properties": {"osm_id": "node/2794855335", "aerialway": "pylon"}}, {"type": "Feature", "geometry": {"type": "Point", "coordinates": [11.3009069, 46.6906402]}, "properties": {"osm_id": "node/2794855341", "aerialway": "pylon"}}, {"type": "Feature", "geometry": {"type": "Point", "coordinates": [11.2885807, 46.6881039]}, "properties": {"osm_id": "node/2794855342", "aerialway": "pylon"}}, {"type": "Feature", "geometry": {"type": "Point", "coordinates": [11.28574, 46.6875194]}, "properties": {"osm_id": "node/2794855345", "aerialway": "pylon"}}, {"type": "Feature", "geometry": {"type": "Point", "coordinates": [11.2845037, 46.687265]}, "properties": {"osm_id": "node/2794855350", "aerialway": "pylon"}}, {"type": "Feature", "geometry": {"type": "Point", "coordinates": [11.2994186, 46.690334]}, "properties": {"osm_id": "node/2794855353", "aerialway": "pylon"}}, {"type": "Feature", "geometry": {"type": "Point", "coordinates": [11.294423, 46.6893061]}, "properties": {"osm_id": "node/2794855355", "aerialway": "pylon"}}, {"type": "Feature", "geometry": {"type": "Point", "coordinates": [11.2969411, 46.6898242]}, "properties": {"osm_id": "node/2794855356", "aerialway": "pylon"}}, {"type": "Feature", "geometry": {"type": "Point", "coordinates": [11.2958227, 46.6895941]}, "properties": {"osm_id": "node/2794855358", "aerialway": "pylon"}}, {"type": "Feature", "geometry": {"type": "Point", "coordinates": [11.2902737, 46.6884523]}, "properties": {"osm_id": "node/2794855362", "aerialway": "pylon"}}, {"type": "Feature", "geometry": {"type": "Point", "coordinates": [11.2823343, 46.6868186]}, "properties": {"osm_id": "node/2794855363", "aerialway": "pylon"}}, {"type": "Feature", "geometry": {"type": "Point", "coordinates": [11.2812257, 46.6865905]}, "properties": {"osm_id": "node/2794855368", "aerialway": "pylon"}}, {"type": "Feature", "geometry": {"type": "Point", "coordinates": [11.2833073, 46.6870188]}, "properties": {"osm_id": "node/2794855375", "aerialway": "pylon"}}, {"type": "Feature", "geometry": {"type": "Point", "coordinates": [11.2916483, 46.6887352]}, "properties": {"osm_id": "node/2794855379", "aerialway": "pylon"}}, {"type": "Feature", "geometry": {"type": "Point", "coordinates": [11.3023674, 46.6909407]}, "properties": {"osm_id": "node/2794855383", "aerialway": "pylon"}}, {"type": "Feature", "geometry": {"type": "Point", "coordinates": [11.2932234, 46.6890593]}, "properties": {"osm_id": "node/2794855389", "aerialway": "pylon"}}, {"type": "Feature", "geometry": {"type": "Point", "coordinates": [11.2751567, 46.6836657]}, "properties": {"osm_id": "node/4216261697", "aerialway": "pylon"}}, {"type": "Feature", "geometry": {"type": "Point", "coordinates": [11.2758455, 46.6815001]}, "properties": {"osm_id": "node/4216261698", "aerialway": "pylon"}}, {"type": "Feature", "geometry": {"type": "Point", "coordinates": [11.2756684, 46.6820568]}, "properties": {"osm_id": "node/4216261699", "aerialway": "pylon"}}, {"type": "Feature", "geometry": {"type": "Point", "coordinates": [11.2754103, 46.6828683]}, "properties": {"osm_id": "node/4216261700", "aerialway": "pylon"}}, {"type": "Feature", "geometry": {"type": "Point", "coordinates": [11.274871, 46.6845638]}, "properties": {"osm_id": "node/4216261701", "aerialway": "pylon"}}, {"type": "Feature", "geometry": {"type": "Point", "coordinates": [11.2744782, 46.6857986]}, "properties": {"osm_id": "node/4216261702", "aerialway": "pylon"}}, {"type": "Feature", "geometry": {"type": "Point", "coordinates": [11.2741082, 46.6869621]}, "properties": {"osm_id": "node/4216261703", "aerialway": "pylon"}}, {"type": "Feature", "geometry": {"type": "Point", "coordinates": [11.2737833, 46.6879834]}, "properties": {"osm_id": "node/4216261704", "aerialway": "pylon"}}, {"type": "Feature", "geometry": {"type": "Point", "coordinates": [11.2734367, 46.6890731]}, "properties": {"osm_id": "node/4216261705", "aerialway": "pylon"}}, {"type": "Feature", "geometry": {"type": "Point", "coordinates": [11.2730369, 46.6903299]}, "properties": {"osm_id": "node/4216261706", "aerialway": "pylon"}}, {"type": "Feature", "geometry": {"type": "Point", "coordinates": [11.2726324, 46.6916015]}, "properties": {"osm_id": "node/4216261707", "aerialway": "pylon"}}, {"type": "Feature", "geometry": {"type": "Point", "coordinates": [11.272526, 46.6919359]}, "properties": {"osm_id": "node/4216261708", "aerialway": "pylon"}}, {"type": "Feature", "geometry": {"type": "Point", "coordinates": [11.2820693, 46.685868]}, "properties": {"osm_id": "node/8669589485", "aerialway": "pylon"}}, {"type": "Feature", "geometry": {"type": "Point", "coordinates": [11.2828785, 46.6856678]}, "properties": {"osm_id": "node/8669589486", "aerialway": "pylon"}}, {"type": "Feature", "geometry": {"type": "Point", "coordinates": [11.2839137, 46.6854117]}, "properties": {"osm_id": "node/8669589487", "aerialway": "pylon"}}, {"type": "Feature", "geometry": {"type": "Point", "coordinates": [11.2849721, 46.6851499]}, "properties": {"osm_id": "node/8669589488", "aerialway": "pylon"}}, {"type": "Feature", "geometry": {"type": "Point", "coordinates": [11.2859936, 46.6848972]}, "properties": {"osm_id": "node/8669589489", "aerialway": "pylon"}}, {"type": "Feature", "geometry": {"type": "Point", "coordinates": [11.2871079, 46.6846216]}, "properties": {"osm_id": "node/8669589490", "aerialway": "pylon"}}, {"type": "Feature", "geometry": {"type": "Point", "coordinates": [11.2884544, 46.6842885]}, "properties": {"osm_id": "node/8669589491", "aerialway": "pylon"}}, {"type": "Feature", "geometry": {"type": "Point", "coordinates": [11.2897876, 46.6839587]}, "properties": {"osm_id": "node/8669589492", "aerialway": "pylon"}}, {"type": "Feature", "geometry": {"type": "Point", "coordinates": [11.2909522, 46.6836706]}, "properties": {"osm_id": "node/8669589493", "aerialway": "pylon"}}, {"type": "Feature", "geometry": {"type": "Point", "coordinates": [11.2921828, 46.6833662]}, "properties": {"osm_id": "node/8669589494", "aerialway": "pylon"}}, {"type": "Feature", "geometry": {"type": "Point", "coordinates": [11.2925677, 46.6832709]}, "properties": {"osm_id": "node/8669589495", "aerialway": "pylon"}}, {"type": "Feature", "geometry": {"type": "Point", "coordinates": [11.2934426, 46.6830545]}, "properties": {"osm_id": "node/8669589496", "aerialway": "pylon"}}, {"type": "Feature", "geometry": {"type": "Point", "coordinates": [11.2940731, 46.6828985]}, "properties": {"osm_id": "node/8669589497", "aerialway": "pylon"}}, {"type": "Feature", "geometry": {"type": "Point", "coordinates": [11.2946706, 46.6827507]}, "properties": {"osm_id": "node/8669589498", "aerialway": "pylon"}}, {"type": "Feature", "geometry": {"type": "Point", "coordinates": [11.2640116, 46.6827051]}, "properties": {"osm_id": "node/10693230132", "aerialway": "station", "public_transport": "station"}}, {"type": "Feature", "geometry": {"type": "Point", "coordinates": [11.2725808, 46.6854471]}, "properties": {"osm_id": "node/10693230133", "aerialway": "station", "public_transport": "station"}}, {"type": "Feature", "geometry": {"type": "Point", "coordinates": [11.2636853, 46.6824699]}, "properties": {"osm_id": "node/12092475894", "aerialway": "pylon", "mapillary": "857608259624021", "material": "metal", "ref": "8", "structure": "tubular"}}, {"type": "Feature", "geometry": {"type": "Point", "coordinates": [11.2723192, 46.6853637]}, "properties": {"osm_id": "node/12092475895", "aerialway": "pylon", "mapillary": "856228855979934", "material": "metal", "ref": "16", "structure": "tubular"}}, {"type": "Feature", "geometry": {"type": "Point", "coordinates": [11.2713516, 46.6850538]}, "properties": {"osm_id": "node/12092475896", "aerialway": "pylon", "mapillary": "8648063305208254", "material": "metal", "ref": "15", "structure": "tubular"}}, {"type": "Feature", "geometry": {"type": "Point", "coordinates": [11.2709277, 46.6849172]}, "properties": {"osm_id": "node/12092475897", "aerialway": "pylon", "mapillary": "497928959487904", "material": "metal", "ref": "14", "structure": "tubular"}}, {"type": "Feature", "geometry": {"type": "Point", "coordinates": [11.270016, 46.6846291]}, "properties": {"osm_id": "node/12092475898", "aerialway": "pylon", "mapillary": "1967176153721735", "material": "metal", "ref": "13", "structure": "tubular"}}, {"type": "Feature", "geometry": {"type": "Point", "coordinates": [11.2678947, 46.6839491]}, "properties": {"osm_id": "node/12092475899", "aerialway": "pylon", "mapillary": "404255569340753", "material": "metal", "ref": "12", "structure": "tubular"}}, {"type": "Feature", "geometry": {"type": "Point", "coordinates": [11.2663081, 46.683437]}, "properties": {"osm_id": "node/12092475900", "aerialway": "pylon", "mapillary": "519624913827310", "material": "metal", "ref": "11", "structure": "tubular"}}, {"type": "Feature", "geometry": {"type": "Point", "coordinates": [11.2651089, 46.6830548]}, "properties": {"osm_id": "node/12092475901", "aerialway": "pylon", "mapillary": "1087236879487249", "material": "metal", "ref": "10", "structure": "tubular"}}, {"type": "Feature", "geometry": {"type": "Point", "coordinates": [11.2644259, 46.6828392]}, "properties": {"osm_id": "node/12092475902", "aerialway": "pylon", "mapillary": "1614245456110322", "material": "metal", "ref": "9", "structure": "tubular"}}, {"type": "Feature", "geometry": {"type": "Point", "coordinates": [11.2633839, 46.6822541]}, "properties": {"osm_id": "node/12092475903", "aerialway": "pylon", "mapillary": "1032678145127884", "material": "metal", "ref": "7", "structure": "tubular"}}, {"type": "Feature", "geometry": {"type": "Point", "coordinates": [11.2625753, 46.6816418]}, "properties": {"osm_id": "node/12092475904", "aerialway": "pylon", "mapillary": "1489108728635376", "material": "metal", "ref": "6", "structure": "tubular"}}, {"type": "Feature", "geometry": {"type": "LineString", "coordinates": [[11.2807635, 46.686191], [11.2820693, 46.685868], [11.2828785, 46.6856678], [11.2839137, 46.6854117], [11.2849721, 46.6851499], [11.2859936, 46.6848972], [11.2871079, 46.6846216], [11.2884544, 46.6842885], [11.2897876, 46.6839587], [11.2909522, 46.6836706], [11.2921828, 46.6833662], [11.2925677, 46.6832709], [11.2934426, 46.6830545], [11.2940731, 46.6828985], [11.2946706, 46.6827507], [11.2949302, 46.6826865]]}, "properties": {"osm_id": "way/25385387", "aerialway": "chair_lift", "aerialway:capacity": "1200", "aerialway:duration": "8", "aerialway:occupancy": "2", "name": "Mittager", "ref": "F"}}, {"type": "Feature", "geometry": {"type": "LineString", "coordinates": [[11.2760243, 46.6809378], [11.2758455, 46.6815001], [11.2756684, 46.6820568], [11.2754103, 46.6828683], [11.2751567, 46.6836657], [11.274871, 46.6845638], [11.2744782, 46.6857986], [11.2741082, 46.6869621], [11.2737833, 46.6879834], [11.2734367, 46.6890731], [11.2730369, 46.6903299], [11.2726324, 46.6916015], [11.272526, 46.6919359], [11.2722128, 46.6929204]]}, "properties": {"osm_id": "way/34481008", "aerialway": "chair_lift", "aerialway:bubble": "yes", "aerialway:capacity": "2000", "aerialway:duration": "5", "aerialway:occupancy": "4", "name": "St. Oswald - S. Osvaldo", "name:de": "St. Oswald", "name:it": "S. Osvaldo", "ref": "E"}}, {"type": "Feature", "geometry": {"type": "LineString", "coordinates": [[11.2807726, 46.6864973], [11.2812257, 46.6865905], [11.2823343, 46.6868186], [11.2833073, 46.6870188], [11.2845037, 46.687265], [11.28574, 46.6875194], [11.2871143, 46.6878022], [11.2885807, 46.6881039], [11.2902737, 46.6884523], [11.2916483, 46.6887352], [11.2932234, 46.6890593], [11.294423, 46.6893061], [11.2958227, 46.6895941], [11.2969411, 46.6898242], [11.2979134, 46.6900243], [11.2994186, 46.690334], [11.3009069, 46.6906402], [11.3023674, 46.6909407], [11.302934, 46.691057]]}, "properties": {"osm_id": "way/61635496", "aerialway": "chair_lift", "aerialway:capacity": "1200", "aerialway:duration": "11", "aerialway:occupancy": "2", "name": "Kesselberg - Costa Valcanova", "name:de": "Kesselberg", "name:it": "Costa Valcanova", "ref": "G"}}, {"type": "Feature", "geometry": {"type": "LineString", "coordinates": [[11.2759449, 46.6810391], [11.2760352, 46.6810475], [11.276071, 46.6809139], [11.2760522, 46.6808974], [11.2760012, 46.6808882], [11.2759744, 46.6809029], [11.2759449, 46.6810391]]}, "properties": {"osm_id": "way/274823958", "aerialway": "station", "building": "yes"}}, {"type": "Feature", "geometry": {"type": "LineString", "coordinates": [[11.2570652, 46.6775509], [11.2573051, 46.6777303], [11.258088, 46.6783102], [11.2593996, 46.6792792], [11.2606, 46.6801736], [11.26173, 46.6810097], [11.2625753, 46.6816418], [11.2633839, 46.6822541], [11.2636853, 46.6824699], [11.2640116, 46.6827051]]}, "properties": {"osm_id": "way/1149441846", "aerialway": "gondola", "aerialway:bicycle": "yes", "aerialway:occupancy": "10", "name": "Naifjoch - Passo di Nova I", "name:de": "Naifjoch", "name:it": "Passo di Nova"}}, {"type": "Feature", "geometry": {"type": "LineString", "coordinates": [[11.2640116, 46.6827051], [11.2644259, 46.6828392], [11.2651089, 46.6830548], [11.2663081, 46.683437], [11.2678947, 46.6839491], [11.270016, 46.6846291], [11.2709277, 46.6849172], [11.2713516, 46.6850538], [11.2723192, 46.6853637], [11.2725808, 46.6854471]]}, "properties": {"osm_id": "way/1525528342", "aerialway": "gondola", "aerialway:bicycle": "yes", "aerialway:occupancy": "10", "name": "Naifjoch - Passo di Nova II", "name:de": "Naifjoch", "name:it": "Passo di Nova", "oneway": "no"}}]}